[
    {
        "CCSDS_OMM_VERS": "3.0",
        "COMMENT": "GENERATED VIA SPACE-TRACK.ORG API",
        "CREATION_DATE": "2025-05-03T17:28:03",
        "ORIGINATOR": "18 SPCS",
        "OBJECT_NAME": "BEIDOU 9",
        "OBJECT_ID": "2011-038A",
        "CENTER_NAME": "EARTH",
        "REF_FRAME": "TEME",
        "TIME_SYSTEM": "UTC",
        "MEAN_ELEMENT_THEORY": "SGP4",
        "EPOCH": "2025-05-03T14:19:54.339744",
        "MEAN_MOTION": "1.00286759",
        "ECCENTRICITY": "0.01421540",
        "INCLINATION": "54.5703",
        "RA_OF_ASC_NODE": "169.3357",
        "ARG_OF_PERICENTER": "230.7658",
        "MEAN_ANOMALY": "130.2682",
        "EPHEMERIS_TYPE": "0",
        "CLASSIFICATION_TYPE": "U",
        "NORAD_CAT_ID": "37763",
        "ELEMENT_SET_NO": "999",
        "REV_AT_EPOCH": "5054",
        "BSTAR": "0.00000000000000",
        "MEAN_MOTION_DOT": "-0.00000044",
        "MEAN_MOTION_DDOT": "0.0000000000000",
        "SEMIMAJOR_AXIS": "42160.535",
        "PERIOD": "1435.882",
        "APOAPSIS": "36381.729",
        "PERIAPSIS": "35183.071",
        "OBJECT_TYPE": "PAYLOAD",
        "RCS_SIZE": "LARGE",
        "COUNTRY_CODE": "PRC",
        "LAUNCH_DATE": "2011-07-26",
        "SITE": "XSC",
        "DECAY_DATE": null,
        "FILE": "4717971",
        "GP_ID": "286758770",
        "TLE_LINE0": "0 BEIDOU 9",
        "TLE_LINE1": "1 37763U 11038A   25123.59715671 -.00000044  00000-0  00000-0 0  9992",
        "TLE_LINE2": "2 37763  54.5703 169.3357 0142154 230.7658 130.2682  1.00286759 50548"
    }
]